STARLINK-36400          
1 67575U 26016Q   26043.16552223  .00244461  00000+0  12361-2 0  9991
2 67575  97.2775 102.3619 0002611 114.6150 245.5391 15.80911937  2789
STARLINK-36591          
1 67576U 26016R   26043.16448931  .00193743  00000+0  98670-3 0  9996
2 67576  97.2850 102.3666 0001353  64.6020 295.5388 15.80887227  2783
STARLINK-36590          
1 67577U 26016S   26043.16353813 -.00317709  00000+0 -17303-2 0  9996
2 67577  97.2778 102.3625 0004286 160.0852 200.0584 15.80651396  2785
STARLINK-36613          
1 67578U 26016T   26043.16238615  .00294311  00000+0  14782-2 0  9998
2 67578  97.2853 102.3686 0001135  93.4394 266.7004 15.80930442  2785
STARLINK-36571          
1 67579U 26016U   26042.91668981 -.00023689  00000+0 -15842-3 0  9993
2 67579  97.2849 102.1068 0001591  85.5439 309.7635 15.75184802  3909
STARLINK-36612          
1 67580U 26016V   26042.90659540  .00233382  00000+0  11830-2 0  9998
2 67580  97.2855 102.1043 0001359  69.9882 290.1533 15.80887995  2741
STARLINK-36632          
1 67581U 26016W   26042.90343019  .00164181  00000+0  84017-3 0  9998
2 67581  97.2858 102.1087 0001206 105.9119 254.2282 15.80859655  2742
STARLINK-36609          
1 67582U 26016X   26042.91668981 -.00248335  00000+0 -17095-2 0  9995
2 67582  97.2853 102.0972 0001472  99.5410 273.8916 15.75234543  3904
STARLINK-36577          
1 67583U 26016Y   26042.90512224  .00189423  00000+0  96677-3 0  9997
2 67583  97.2859 102.1058 0001388  94.1099 266.0328 15.80851640  2748
STARLINK-36419          
1 67584U 26016Z   26042.90112360  .00238087  00000+0  12058-2 0  9996
2 67584  97.2858 102.1118 0001078  82.4615 277.6775 15.80893729  2743
STARLINK-36560          
1 67585U 26016AA  26042.89940513  .00195949  00000+0  99812-3 0  9997
2 67585  97.2858 102.1137 0001863  56.5912 303.5534 15.80876871  2740
CZ-2C DEB               
1 67586U 26009C   26043.16526935  .00066365  00000+0  32527-2 0  9997
2 67586  97.2258 116.4619 0110015 125.5020 235.6535 15.12637782  4227
