CCSDS_OMM_VERS = 2.0
CREATION_DATE  = 
ORIGINATOR     = 

OBJECT_NAME    = STARLINK-36400
OBJECT_ID      = 2026-016Q
CENTER_NAME    = EARTH
REF_FRAME      = TEME
TIME_SYSTEM    = UTC
MEAN_ELEMENT_THEORY = SGP/SGP4

EPOCH          = 2026-02-12T03:58:21.120672
MEAN_MOTION    = 15.80911937
ECCENTRICITY   = .0002611
INCLINATION    = 97.2775
RA_OF_ASC_NODE = 102.3619
ARG_OF_PERICENTER = 114.6150
MEAN_ANOMALY   = 245.5391

EPHEMERIS_TYPE = 0
CLASSIFICATION_TYPE = U
NORAD_CAT_ID   = 67575
ELEMENT_SET_NO = 999
REV_AT_EPOCH   = 278
BSTAR          = .12361E-2
MEAN_MOTION_DOT = .244461E-2
MEAN_MOTION_DDOT = 0

CCSDS_OMM_VERS = 2.0
CREATION_DATE  = 
ORIGINATOR     = 

OBJECT_NAME    = STARLINK-36591
OBJECT_ID      = 2026-016R
CENTER_NAME    = EARTH
REF_FRAME      = TEME
TIME_SYSTEM    = UTC
MEAN_ELEMENT_THEORY = SGP/SGP4

EPOCH          = 2026-02-12T03:56:51.876384
MEAN_MOTION    = 15.80887227
ECCENTRICITY   = .0001353
INCLINATION    = 97.2850
RA_OF_ASC_NODE = 102.3666
ARG_OF_PERICENTER = 64.6020
MEAN_ANOMALY   = 295.5388

EPHEMERIS_TYPE = 0
CLASSIFICATION_TYPE = U
NORAD_CAT_ID   = 67576
ELEMENT_SET_NO = 999
REV_AT_EPOCH   = 278
BSTAR          = .9867E-3
MEAN_MOTION_DOT = .193743E-2
MEAN_MOTION_DDOT = 0

CCSDS_OMM_VERS = 2.0
CREATION_DATE  = 
ORIGINATOR     = 

OBJECT_NAME    = STARLINK-36590
OBJECT_ID      = 2026-016S
CENTER_NAME    = EARTH
REF_FRAME      = TEME
TIME_SYSTEM    = UTC
MEAN_ELEMENT_THEORY = SGP/SGP4

EPOCH          = 2026-02-12T03:55:29.694432
MEAN_MOTION    = 15.80651396
ECCENTRICITY   = .0004286
INCLINATION    = 97.2778
RA_OF_ASC_NODE = 102.3625
ARG_OF_PERICENTER = 160.0852
MEAN_ANOMALY   = 200.0584

EPHEMERIS_TYPE = 0
CLASSIFICATION_TYPE = U
NORAD_CAT_ID   = 67577
ELEMENT_SET_NO = 999
REV_AT_EPOCH   = 278
BSTAR          = -.17303E-2
MEAN_MOTION_DOT = -.317709E-2
MEAN_MOTION_DDOT = 0

CCSDS_OMM_VERS = 2.0
CREATION_DATE  = 
ORIGINATOR     = 

OBJECT_NAME    = STARLINK-36613
OBJECT_ID      = 2026-016T
CENTER_NAME    = EARTH
REF_FRAME      = TEME
TIME_SYSTEM    = UTC
MEAN_ELEMENT_THEORY = SGP/SGP4

EPOCH          = 2026-02-12T03:53:50.163360
MEAN_MOTION    = 15.80930442
ECCENTRICITY   = .0001135
INCLINATION    = 97.2853
RA_OF_ASC_NODE = 102.3686
ARG_OF_PERICENTER = 93.4394
MEAN_ANOMALY   = 266.7004

EPHEMERIS_TYPE = 0
CLASSIFICATION_TYPE = U
NORAD_CAT_ID   = 67578
ELEMENT_SET_NO = 999
REV_AT_EPOCH   = 278
BSTAR          = .14782E-2
MEAN_MOTION_DOT = .294311E-2
MEAN_MOTION_DDOT = 0

CCSDS_OMM_VERS = 2.0
CREATION_DATE  = 
ORIGINATOR     = 

OBJECT_NAME    = STARLINK-36571
OBJECT_ID      = 2026-016U
CENTER_NAME    = EARTH
REF_FRAME      = TEME
TIME_SYSTEM    = UTC
MEAN_ELEMENT_THEORY = SGP/SGP4

EPOCH          = 2026-02-11T22:00:01.999584
MEAN_MOTION    = 15.75184802
ECCENTRICITY   = .00015919
INCLINATION    = 97.2849
RA_OF_ASC_NODE = 102.1068
ARG_OF_PERICENTER = 85.5439
MEAN_ANOMALY   = 309.7635

EPHEMERIS_TYPE = 0
CLASSIFICATION_TYPE = U
NORAD_CAT_ID   = 67579
ELEMENT_SET_NO = 999
REV_AT_EPOCH   = 390
BSTAR          = -.15841886E-3
MEAN_MOTION_DOT = -.23689E-3
MEAN_MOTION_DDOT = 0

CCSDS_OMM_VERS = 2.0
CREATION_DATE  = 
ORIGINATOR     = 

OBJECT_NAME    = STARLINK-36612
OBJECT_ID      = 2026-016V
CENTER_NAME    = EARTH
REF_FRAME      = TEME
TIME_SYSTEM    = UTC
MEAN_ELEMENT_THEORY = SGP/SGP4

EPOCH          = 2026-02-11T21:45:29.842560
MEAN_MOTION    = 15.80887995
ECCENTRICITY   = .00013596
INCLINATION    = 97.2855
RA_OF_ASC_NODE = 102.1043
ARG_OF_PERICENTER = 69.9882
MEAN_ANOMALY   = 290.1533

EPHEMERIS_TYPE = 0
CLASSIFICATION_TYPE = U
NORAD_CAT_ID   = 67580
ELEMENT_SET_NO = 999
REV_AT_EPOCH   = 274
BSTAR          = .11829539E-2
MEAN_MOTION_DOT = .233382E-2
MEAN_MOTION_DDOT = 0

CCSDS_OMM_VERS = 2.0
CREATION_DATE  = 
ORIGINATOR     = 

OBJECT_NAME    = STARLINK-36632
OBJECT_ID      = 2026-016W
CENTER_NAME    = EARTH
REF_FRAME      = TEME
TIME_SYSTEM    = UTC
MEAN_ELEMENT_THEORY = SGP/SGP4

EPOCH          = 2026-02-11T21:40:56.368416
MEAN_MOTION    = 15.80859655
ECCENTRICITY   = .00012067
INCLINATION    = 97.2858
RA_OF_ASC_NODE = 102.1087
ARG_OF_PERICENTER = 105.9119
MEAN_ANOMALY   = 254.2282

EPHEMERIS_TYPE = 0
CLASSIFICATION_TYPE = U
NORAD_CAT_ID   = 67581
ELEMENT_SET_NO = 999
REV_AT_EPOCH   = 274
BSTAR          = .84017491E-3
MEAN_MOTION_DOT = .164181E-2
MEAN_MOTION_DDOT = 0

CCSDS_OMM_VERS = 2.0
CREATION_DATE  = 
ORIGINATOR     = 

OBJECT_NAME    = STARLINK-36609
OBJECT_ID      = 2026-016X
CENTER_NAME    = EARTH
REF_FRAME      = TEME
TIME_SYSTEM    = UTC
MEAN_ELEMENT_THEORY = SGP/SGP4

EPOCH          = 2026-02-11T22:00:01.999584
MEAN_MOTION    = 15.75234543
ECCENTRICITY   = .00014723
INCLINATION    = 97.2853
RA_OF_ASC_NODE = 102.0972
ARG_OF_PERICENTER = 99.5410
MEAN_ANOMALY   = 273.8916

EPHEMERIS_TYPE = 0
CLASSIFICATION_TYPE = U
NORAD_CAT_ID   = 67582
ELEMENT_SET_NO = 999
REV_AT_EPOCH   = 390
BSTAR          = -.17094924E-2
MEAN_MOTION_DOT = -.248335E-2
MEAN_MOTION_DDOT = 0

CCSDS_OMM_VERS = 2.0
CREATION_DATE  = 
ORIGINATOR     = 

OBJECT_NAME    = STARLINK-36577
OBJECT_ID      = 2026-016Y
CENTER_NAME    = EARTH
REF_FRAME      = TEME
TIME_SYSTEM    = UTC
MEAN_ELEMENT_THEORY = SGP/SGP4

EPOCH          = 2026-02-11T21:43:22.561536
MEAN_MOTION    = 15.80851640
ECCENTRICITY   = .00013885
INCLINATION    = 97.2859
RA_OF_ASC_NODE = 102.1058
ARG_OF_PERICENTER = 94.1099
MEAN_ANOMALY   = 266.0328

EPHEMERIS_TYPE = 0
CLASSIFICATION_TYPE = U
NORAD_CAT_ID   = 67583
ELEMENT_SET_NO = 999
REV_AT_EPOCH   = 274
BSTAR          = .9667662E-3
MEAN_MOTION_DOT = .189423E-2
MEAN_MOTION_DDOT = 0

CCSDS_OMM_VERS = 2.0
CREATION_DATE  = 
ORIGINATOR     = 

OBJECT_NAME    = STARLINK-36419
OBJECT_ID      = 2026-016Z
CENTER_NAME    = EARTH
REF_FRAME      = TEME
TIME_SYSTEM    = UTC
MEAN_ELEMENT_THEORY = SGP/SGP4

EPOCH          = 2026-02-11T21:37:37.079040
MEAN_MOTION    = 15.80893729
ECCENTRICITY   = .00010783
INCLINATION    = 97.2858
RA_OF_ASC_NODE = 102.1118
ARG_OF_PERICENTER = 82.4615
MEAN_ANOMALY   = 277.6775

EPHEMERIS_TYPE = 0
CLASSIFICATION_TYPE = U
NORAD_CAT_ID   = 67584
ELEMENT_SET_NO = 999
REV_AT_EPOCH   = 274
BSTAR          = .12058178E-2
MEAN_MOTION_DOT = .238087E-2
MEAN_MOTION_DDOT = 0

CCSDS_OMM_VERS = 2.0
CREATION_DATE  = 
ORIGINATOR     = 

OBJECT_NAME    = STARLINK-36560
OBJECT_ID      = 2026-016AA
CENTER_NAME    = EARTH
REF_FRAME      = TEME
TIME_SYSTEM    = UTC
MEAN_ELEMENT_THEORY = SGP/SGP4

EPOCH          = 2026-02-11T21:35:08.603232
MEAN_MOTION    = 15.80876871
ECCENTRICITY   = .00018631
INCLINATION    = 97.2858
RA_OF_ASC_NODE = 102.1137
ARG_OF_PERICENTER = 56.5912
MEAN_ANOMALY   = 303.5534

EPHEMERIS_TYPE = 0
CLASSIFICATION_TYPE = U
NORAD_CAT_ID   = 67585
ELEMENT_SET_NO = 999
REV_AT_EPOCH   = 274
BSTAR          = .99812145E-3
MEAN_MOTION_DOT = .195949E-2
MEAN_MOTION_DDOT = 0

CCSDS_OMM_VERS = 2.0
CREATION_DATE  = 
ORIGINATOR     = 

OBJECT_NAME    = CZ-2C DEB
OBJECT_ID      = 2026-009C
CENTER_NAME    = EARTH
REF_FRAME      = TEME
TIME_SYSTEM    = UTC
MEAN_ELEMENT_THEORY = SGP/SGP4

EPOCH          = 2026-02-12T03:57:59.271840
MEAN_MOTION    = 15.12637782
ECCENTRICITY   = .0110015
INCLINATION    = 97.2258
RA_OF_ASC_NODE = 116.4619
ARG_OF_PERICENTER = 125.5020
MEAN_ANOMALY   = 235.6535

EPHEMERIS_TYPE = 0
CLASSIFICATION_TYPE = U
NORAD_CAT_ID   = 67586
ELEMENT_SET_NO = 999
REV_AT_EPOCH   = 422
BSTAR          = .32527E-2
MEAN_MOTION_DOT = .66365E-3
MEAN_MOTION_DDOT = 0

